NORAD_CAT_ID,OBJECT_NAME,OBJECT_TYPE,EPOCH,MEAN_MOTION,ECCENTRICITY,INCLINATION,RA_OF_ASC_NODE,ARG_OF_PERICENTER,MEAN_ANOMALY,BSTAR,MEAN_MOTION_DOT,MEAN_MOTION_DDOT,TLE_LINE0,TLE_LINE1,TLE_LINE2,SEMIMAJOR_AXIS,PERIOD,APOGEE,PERIGEE,DECAYED
54193.0,STARLINK-5263,PAYLOAD,2023-08-21 07:55:17,15.08845866,0.0001307,53.2166,215.1957,89.2283,270.8859,8.8738e-05,1.125e-05,0.0,0 STARLINK-5263,1 54193U 22141AN  23233.33005817  .00001125  00000-0  88738-4 0  9999,2 54193  53.2166 215.1957 0001307  89.2283 270.8859 15.08845866 45627,6917.862,95.437,540.632,538.823,0.0
54193.0,STARLINK-5263,PAYLOAD,2023-08-22 06:10:41,15.08835445,0.0001421,53.2167,211.033,84.0995,276.0159,5.4694e-05,5.83e-06,0.0,0 STARLINK-5263,1 54193U 22141AN  23234.25742897  .00000583  00000-0  54694-4 0  9998,2 54193  53.2167 211.0330 0001421  84.0995 276.0159 15.08835445 45766,6917.894,95.438,540.742,538.776,0.0
54193.0,STARLINK-5263,PAYLOAD,2023-08-23 10:47:37,15.08847551,0.0001344,53.216,205.6797,95.4631,264.6514,5.5631e-05,5.98e-06,0.0,0 STARLINK-5263,1 54193U 22141AN  23235.44974178  .00000598  00000-0  55631-4 0  9997,2 54193  53.2160 205.6797 0001344  95.4631 264.6514 15.08847551 45941,6917.857,95.437,540.652,538.793,0.0
54193.0,STARLINK-5263,PAYLOAD,2023-08-24 07:27:38,15.08840199,0.000154,53.2162,201.8136,97.227,262.8897,6.8802e-05,8.07e-06,0.0,0 STARLINK-5263,1 54193U 22141AN  23236.31086755  .00000807  00000-0  68802-4 0  9996,2 54193  53.2162 201.8136 0001540  97.2270 262.8897 15.08840199 45849,6917.88,95.438,540.81,538.679,0.0
54193.0,STARLINK-5263,PAYLOAD,2023-08-25 07:18:25,15.08843625,0.0001627,53.2163,197.3525,104.0489,256.0684,0.0001481,2.07e-05,0.0,0 STARLINK-5263,1 54193U 22141AN  23237.30446322  .00002070  00000-0  14810-3 0  9999,2 54193  53.2163 197.3525 0001627 104.0489 256.0684 15.08843625 46225,6917.869,95.437,540.86,538.609,0.0
54193.0,STARLINK-5263,PAYLOAD,2023-08-26 00:47:40,15.08842156,0.0001554,53.2164,194.0803,109.1846,250.9314,5.7917e-06,-1.96e-06,0.0,0 STARLINK-5263,1 54193U 22141AN  23238.03310742 -.00000196  00000-0  57917-5 0  9991,2 54193  53.2164 194.0803 0001554 109.1846 250.9314 15.08842156 46334,6917.874,95.437,540.814,538.664,0.0
54193.0,STARLINK-5263,PAYLOAD,2023-08-26 07:09:12,15.08845041,0.0001296,53.217,192.8932,98.2341,261.8798,5.9488e-05,6.59e-06,0.0,0 STARLINK-5263,1 54193U 22141AN  23238.29806400  .00000659  00000-0  59488-4 0  9997,2 54193  53.2170 192.8932 0001296  98.2341 261.8798 15.08845041 46143,6917.865,95.437,540.627,538.833,0.0
54193.0,STARLINK-5263,PAYLOAD,2023-08-26 21:27:41,15.08837182,0.0001393,53.2177,190.218,103.6479,256.4668,-4.1871e-05,-9.54e-06,0.0,0 STARLINK-5263,1 54193U 22141AN  23238.89423304 -.00000954  00000-0 -41871-4 0  9998,2 54193  53.2177 190.2180 0001393 103.6479 256.4668 15.08837182 46231,6917.889,95.438,540.718,538.79,0.0
54193.0,STARLINK-5263,PAYLOAD,2023-08-27 02:13:50,15.08842233,0.0001348,53.2176,189.3255,99.2971,260.8174,-1.1793e-05,-4.76e-06,0.0,0 STARLINK-5263,1 54193U 22141AN  23239.09294896 -.00000476  00000-0 -11793-4 0  9992,2 54193  53.2176 189.3255 0001348  99.2971 260.8174 15.08842233 46491,6917.874,95.437,540.671,538.806,0.0
54193.0,STARLINK-5263,PAYLOAD,2023-08-27 08:35:22,15.08846101,0.0001302,53.2175,188.1351,101.3683,258.7456,1.1549e-05,-1.04e-06,0.0,0 STARLINK-5263,1 54193U 22141AN  23239.35790500 -.00000104  00000-0  11549-4 0  9990,2 54193  53.2175 188.1351 0001302 101.3683 258.7456 15.08846101 46306,6917.862,95.437,540.627,538.826,0.0
54193.0,STARLINK-5263,PAYLOAD,2023-08-28 03:40:01,15.0883819,0.0001283,53.2173,184.5701,108.0729,252.0403,1.6102e-05,-3.2e-07,0.0,0 STARLINK-5263,1 54193U 22141AN  23240.15279183 -.00000032  00000-0  16102-4 0  9999,2 54193  53.2173 184.5701 0001283 108.0729 252.0403 15.08838190 46652,6917.886,95.438,540.638,538.863,0.0
54193.0,STARLINK-5263,PAYLOAD,2023-08-28 13:12:19,15.08839888,0.0001269,53.2175,182.7846,97.0834,263.0302,2.1577e-05,5.6e-07,0.0,0 STARLINK-5263,1 54193U 22141AN  23240.55023123  .00000056  00000-0  21577-4 0  9991,2 54193  53.2175 182.7846 0001269  97.0834 263.0302 15.08839888 46488,6917.881,95.438,540.624,538.868,0.0
54193.0,STARLINK-5263,PAYLOAD,2023-08-29 06:41:34,15.08840505,0.0001404,53.2177,179.5132,87.6895,272.4258,6.3208e-05,7.18e-06,0.0,0 STARLINK-5263,1 54193U 22141AN  23241.27887302  .00000718  00000-0  63208-4 0  9990,2 54193  53.2177 179.5132 0001404  87.6895 272.4258 15.08840505 46825,6917.879,95.438,540.715,538.773,0.0
54193.0,STARLINK-5263,PAYLOAD,2023-08-29 13:03:07,15.08838038,0.0001524,53.218,178.3233,81.4165,278.7,2.0058e-06,-2.56e-06,0.0,0 STARLINK-5263,1 54193U 22141AN  23241.54383724 -.00000256  00000-0  20058-5 0  9994,2 54193  53.2180 178.3233 0001524  81.4165 278.7000 15.08838038 46634,6917.886,95.438,540.806,538.697,0.0
54193.0,STARLINK-5263,PAYLOAD,2023-08-30 12:53:54,15.08839026,0.0001293,53.2171,173.8622,87.6552,272.4588,-7.8853e-06,-4.13e-06,0.0,0 STARLINK-5263,1 54193U 22141AN  23242.53743896 -.00000413  00000-0 -78853-5 0  9996,2 54193  53.2171 173.8622 0001293  87.6552 272.4588 15.08839026 46783,6917.883,95.438,540.643,538.854,0.0
54193.0,STARLINK-5263,PAYLOAD,2023-08-31 01:36:59,15.08838999,0.0001168,53.2169,171.4839,87.2349,272.8777,0.00013271,1.825e-05,0.0,0 STARLINK-5263,1 54193U 22141AN  23243.06735638  .00001825  00000-0  13271-3 0  9997,2 54193  53.2169 171.4839 0001168  87.2349 272.8777 15.08838999 47092,6917.883,95.438,540.556,538.94,0.0
54193.0,STARLINK-5263,PAYLOAD,2023-09-01 01:27:46,15.08844413,0.0001346,53.2174,167.0238,90.4627,269.652,0.00012115,1.641e-05,0.0,0 STARLINK-5263,1 54193U 22141AN  23244.06095372  .00001641  00000-0  12115-3 0  9994,2 54193  53.2174 167.0238 0001346  90.4627 269.6520 15.08844413 47015,6917.867,95.437,540.663,538.801,0.0
54193.0,STARLINK-5263,PAYLOAD,2023-09-01 18:57:01,15.08832367,6.4e-05,53.2178,163.7546,87.198,272.9086,0.0001823,2.614e-05,0.0,0 STARLINK-5263,1 54193U 22141AN  23244.78959748  .00002614  00000-0  18230-3 0  9994,2 54193  53.2178 163.7546 0000640  87.1980 272.9086 15.08832367 47351,6917.904,95.438,540.211,539.326,0.0
54193.0,STARLINK-5263,PAYLOAD,2023-09-02 04:29:19,15.08846518,0.0001417,53.2164,161.9681,88.7281,271.3873,7.8908e-05,9.68e-06,0.0,0 STARLINK-5263,1 54193U 22141AN  23245.18703279  .00000968  00000-0  78908-4 0  9994,2 54193  53.2164 161.9681 0001417  88.7281 271.3873 15.08846518 47417,6917.86,95.437,540.706,538.745,0.0
54193.0,STARLINK-5263,PAYLOAD,2023-09-03 01:09:20,15.08840996,0.0001261,53.2168,158.1034,94.5709,265.5427,1.6896e-05,-1.9e-07,0.0,0 STARLINK-5263,1 54193U 22141AN  23246.04815738 -.00000019  00000-0  16896-4 0  9990,2 54193  53.2168 158.1034 0001261  94.5709 265.5427 15.08840996 47546,6917.877,95.437,540.615,538.87,0.0
54193.0,STARLINK-5263,PAYLOAD,2023-09-04 01:00:08,15.08835501,0.0001352,53.2164,153.6437,91.8056,268.3091,-1.1488e-05,-4.71e-06,0.0,0 STARLINK-5263,1 54193U 22141AN  23247.04176465 -.00000471  00000-0 -11488-4 0  9993,2 54193  53.2164 153.6437 0001352  91.8056 268.3091 15.08835501 47695,6917.894,95.438,540.694,538.824,0.0
54193.0,STARLINK-5263,PAYLOAD,2023-09-04 10:32:26,15.08849242,0.0001355,53.2173,151.8585,90.7739,269.3409,-0.00015776,-2.798e-05,0.0,0 STARLINK-5263,1 54193U 22141AN  23247.43920001 -.00002798  00000-0 -15776-3 0  9996,2 54193  53.2173 151.8585 0001355  90.7739 269.3409 15.08849242 47756,6917.852,95.437,540.655,538.78,0.0
54193.0,STARLINK-5263,PAYLOAD,2023-09-05 02:26:18,15.08825134,0.0001367,53.2172,148.8844,92.5113,267.6035,0.00023208,3.406e-05,0.0,0 STARLINK-5263,1 54193U 22141AN  23248.10160703  .00003406  00000-0  23208-3 0  9990,2 54193  53.2172 148.8844 0001367  92.5113 267.6035 15.08825134 47859,6917.926,95.438,540.737,538.845,0.0
54193.0,STARLINK-5263,PAYLOAD,2023-09-06 19:46:20,15.08838391,0.0001397,53.2177,141.1538,88.71,271.4052,6.1546e-05,6.92e-06,0.0,0 STARLINK-5263,1 54193U 22141AN  23249.82384507  .00000692  00000-0  61546-4 0  9992,2 54193  53.2177 141.1538 0001397  88.7100 271.4052 15.08838391 47880,6917.885,95.438,540.717,538.784,0.0
54193.0,STARLINK-5263,PAYLOAD,2023-09-07 02:07:52,15.08845457,0.0001244,53.2172,139.9631,91.8404,268.2731,4.466e-05,4.23e-06,0.0,0 STARLINK-5263,1 54193U 22141AN  23250.08880017  .00000423  00000-0  44660-4 0  9999,2 54193  53.2172 139.9631 0001244  91.8404 268.2731 15.08845457 48157,6917.864,95.437,540.589,538.868,0.0
54193.0,STARLINK-5263,PAYLOAD,2023-09-07 22:47:53,15.08838855,0.0001603,53.216,136.1,81.9308,278.1866,4.6169e-05,4.47e-06,0.0,0 STARLINK-5263,1 54193U 22141AN  23250.94992330  .00000447  00000-0  46169-4 0  9998,2 54193  53.2160 136.1000 0001603  81.9308 278.1866 15.08838855 48282,6917.884,95.438,540.858,538.64,0.0
54193.0,STARLINK-5263,PAYLOAD,2023-09-08 22:38:40,15.08840652,0.0001339,53.2172,131.6382,88.439,271.6755,3.6774e-05,2.97e-06,0.0,0 STARLINK-5263,1 54193U 22141AN  23251.94352333  .00000297  00000-0  36774-4 0  9996,2 54193  53.2172 131.6382 0001339  88.4390 271.6755 15.08840652 48202,6917.878,95.438,540.67,538.817,0.0
54193.0,STARLINK-5263,PAYLOAD,2023-09-09 01:49:26,15.08843529,0.0001323,53.2169,131.0425,88.3301,271.7843,4.8417e-05,4.83e-06,0.0,0 STARLINK-5263,1 54193U 22141AN  23252.07600084  .00000483  00000-0  48417-4 0  9994,2 54193  53.2169 131.0425 0001323  88.3301 271.7843 15.08843529 48456,6917.87,95.437,540.65,538.819,0.0
54193.0,STARLINK-5263,PAYLOAD,2023-09-09 16:07:51,15.08869268,0.0001266,53.2173,128.3684,90.024,270.0898,0.00030697,4.605e-05,0.0,0 STARLINK-5263,1 54193U 22141AN  23252.67212849  .00004605  00000-0  30697-3 0  9998,2 54193  53.2173 128.3684 0001266  90.0240 270.0898 15.08869268 48545,6917.791,95.436,540.532,538.78,0.0
54193.0,STARLINK-5263,PAYLOAD,2023-09-09 22:29:27,15.08827126,0.0001157,53.2169,127.1765,91.2583,268.8541,-3.5437e-05,-8.52e-06,0.0,0 STARLINK-5263,1 54193U 22141AN  23252.93712439 -.00000852  00000-0 -35437-4 0  9997,2 54193  53.2169 127.1765 0001157  91.2583 268.8541 15.08827126 48580,6917.92,95.438,540.585,538.984,0.0
